     3.00           N: GNSS NAV DATA    E: Galileo          RINEX VERSION / TYPE
PREC2NAV                                20121215 063314 UTC PGM / RUN BY / DATE 
SOURCE: data/tum%W%D.sp3                                    COMMENT             
                                                            END OF HEADER       
E12 2012 11 13 14  0  0  .499825566400E-03  .851398846154E-10  .000000000000E+00
      .800000000000E+01  .436650349858E+02  .399345307329E-08  .211960378450E+01
      .209890222362E-05  .658120678759E-04  .420754280811E-05  .544059479586E+04
      .223200000000E+06  .416258501570E-07  .119344679812E+01  .115819580990E-06
      .956037927822E+00  .248961002694E+03 -.326732438306E+01 -.605861229945E-08
      .471828413702E-09  .000000000000E+00  .171400000000E+04  .000000000000E+00
      .240000000000E+01  .000000000000E+00  .000000000000E+00  .000000000000E+00
      .226800000000E+06  .000000000000E+00
E11 2012 11 13 16  0  0  .399562131600E-03  .385842946154E-09  .000000000000E+00
      .900000000000E+01  .441064954620E+02  .396456521428E-08 -.250122195411E+01
      .208212714440E-05  .140891311348E-03  .439442927932E-05  .544059708752E+04
      .230400000000E+06 -.138328659304E-07  .119342960910E+01  .996971861185E-07
      .956029857818E+00  .244989225119E+03  .154222790269E+01 -.601500877578E-08
      .543786810306E-09  .000000000000E+00  .171400000000E+04  .000000000000E+00
      .240000000000E+01  .000000000000E+00  .000000000000E+00  .000000000000E+00
      .234000000000E+06  .000000000000E+00
E12 2012 11 13 16  0  0  .500438387320E-03  .850965076923E-10  .000000000000E+00
      .900000000000E+01  .477020882489E+02  .391212784318E-08 -.126457141870E+00
      .230863559584E-05 -.664810757858E-04  .440788244578E-05  .544059340658E+04
      .230400000000E+06 -.609015238367E-07  .119340278414E+01 -.367012934060E-07
      .956042521029E+00  .245328518117E+03 -.641180864259E+01 -.590162016726E-08
      .583891946983E-09  .000000000000E+00  .171400000000E+04  .000000000000E+00
      .240000000000E+01  .000000000000E+00  .000000000000E+00  .000000000000E+00
      .234000000000E+06  .000000000000E+00
E11 2012 11 13 18  0  0  .402340200880E-03  .385857871795E-09  .000000000000E+00
      .100000000000E+02  .470971105978E+02  .388119909067E-08 -.161391436868E+01
      .229199514285E-05  .141072749094E-03  .468433815183E-05  .544059552405E+04
      .237600000000E+06 -.305647928314E-07  .119338621018E+01 -.464279199419E-07
      .956034743587E+00  .239961888956E+03  .154755891862E+01 -.587973979911E-08
      .612864852923E-09  .000000000000E+00  .171400000000E+04  .000000000000E+00
      .240000000000E+01  .000000000000E+00  .000000000000E+00  .000000000000E+00
      .241200000000E+06  .000000000000E+00
E12 2012 11 13 18  0  0  .501050939600E-03  .850677846154E-10  .000000000000E+00
      .100000000000E+02  .431320845173E+02  .389345640722E-08 -.238401612253E+01
      .204073127402E-05  .684104695149E-04  .512638090522E-05  .544058920705E+04
      .237600000000E+06  .537182759354E-08  .119336060850E+01 -.211998376021E-07
      .956047044247E+00  .232148456752E+03  .302157649162E+01 -.584007614130E-08
      .580493163653E-09  .000000000000E+00  .171400000000E+04  .000000000000E+00
      .240000000000E+01  .000000000000E+00  .000000000000E+00  .000000000000E+00
      .241200000000E+06  .000000000000E+00
E11 2012 11 13 20  0  0  .405118475360E-03  .385866105128E-09  .000000000000E+00
      .110000000000E+02  .407480207740E+02  .385862535109E-08 -.731909313018E+00
      .189366087604E-05  .140563433432E-03  .518001526352E-05  .544059223285E+04
      .244800000000E+06  .148200034530E-07  .119334418309E+01 -.169944967814E-07
      .956039367274E+00  .230954790313E+03  .155819327472E+01 -.583343974210E-08
      .606447454845E-09  .000000000000E+00  .171400000000E+04  .000000000000E+00
      .240000000000E+01  .000000000000E+00  .000000000000E+00  .000000000000E+00
      .248400000000E+06  .000000000000E+00
E12 2012 11 13 20  0  0  .501663474680E-03  .850633000000E-10  .000000000000E+00
      .110000000000E+02  .401698817207E+02  .383560012455E-08 -.149639934547E+01
      .168520651930E-05  .686498081904E-04  .493646911570E-05  .544058833749E+04
      .244800000000E+06  .252335133139E-07  .119331839123E+01 -.139835687125E-07
      .956051236124E+00  .232431841158E+03  .302660174488E+01 -.585002184775E-08
      .598445727212E-09  .000000000000E+00  .171400000000E+04  .000000000000E+00
      .240000000000E+01  .000000000000E+00  .000000000000E+00  .000000000000E+00
      .248400000000E+06  .000000000000E+00
E11 2012 11 13 22  0  0  .407896799600E-03  .385893582051E-09  .000000000000E+00
      .120000000000E+02  .408419512624E+02  .378267213908E-08  .160708827078E+00
      .172965048385E-05  .140560988669E-03  .493906553213E-05  .544059220375E+04
      .252000000000E+06  .247481352547E-07  .119330210763E+01 -.192841844423E-07
      .956043749839E+00  .230758612418E+03  .155821495748E+01 -.583869778439E-08
      .612187114664E-09  .000000000000E+00  .171400000000E+04  .000000000000E+00
      .240000000000E+01  .000000000000E+00  .000000000000E+00  .000000000000E+00
      .255600000000E+06  .000000000000E+00
E12 2012 11 13 22  0  0  .502275829800E-03  .850404230769E-10  .000000000000E+00
      .120000000000E+02  .438236682840E+02  .379216058357E-08 -.611394169970E+00
      .201203982946E-05  .682936037775E-04  .464362031072E-05  .544058701909E+04
      .252000000000E+06  .397184725919E-07  .119327627362E+01  .186137564439E-08
      .956055552231E+00  .234868682572E+03  .303423843360E+01 -.585802073654E-08
      .597566037387E-09  .000000000000E+00  .171400000000E+04  .000000000000E+00
      .240000000000E+01  .000000000000E+00  .000000000000E+00  .000000000000E+00
      .255600000000E+06  .000000000000E+00
E11 2012 11 14  0  0  0  .410675597360E-03  .386048158974E-09  .000000000000E+00
      .130000000000E+02  .464266751240E+02  .371857644680E-08  .105685442156E+01
      .216498508196E-05  .139853716925E-03  .475669013948E-05  .544059041334E+04
      .259200000000E+06  .426218136048E-07  .119325981508E+01 -.108948181942E-06
      .956048420228E+00  .233010143116E+03  .155470935444E+01 -.578115691945E-08
      .635649939168E-09  .000000000000E+00  .171400000000E+04  .000000000000E+00
      .240000000000E+01  .000000000000E+00  .000000000000E+00  .000000000000E+00
      .262800000000E+06  .000000000000E+00
E12 2012 11 14  0  0  0  .502888357120E-03  .851255820513E-10  .000000000000E+00
      .130000000000E+02  .447282737171E+02  .378299628461E-08  .279797169565E+00
      .216365798801E-05  .685184974967E-04  .468945961292E-05  .544058744471E+04
      .259200000000E+06 -.332217650050E-07  .119323398818E+01  .234168464560E-09
      .956059417863E+00  .237110083200E+03 -.324749614432E+01 -.593482363771E-08
      .596257887975E-09  .000000000000E+00  .171400000000E+04  .000000000000E+00
      .240000000000E+01  .000000000000E+00  .000000000000E+00  .000000000000E+00
      .262800000000E+06  .000000000000E+00
